[{"OBJECT_NAME":"ONEWEB-0285","OBJECT_ID":"2021-075A","EPOCH":"2026-03-09T21:01:01.616160","MEAN_MOTION":13.1244265,"ECCENTRICITY":0.0001853,"INCLINATION":87.9003,"RA_OF_ASC_NODE":10.3712,"ARG_OF_PERICENTER":80.037,"MEAN_ANOMALY":280.0968,"EPHEMERIS_TYPE":0,"CLASSIFICATION_TYPE":"U","NORAD_CAT_ID":49075,"ELEMENT_SET_NO":999,"REV_AT_EPOCH":22218,"BSTAR":-0.00037621034,"MEAN_MOTION_DOT":-1.23e-6,"MEAN_MOTION_DDOT":0},{"OBJECT_NAME":"COSMOS 2251 DEB","OBJECT_ID":"1993-036TR","EPOCH":"2026-03-09T17:08:42.195264","MEAN_MOTION":13.70649647,"ECCENTRICITY":0.03285514,"INCLINATION":74.085,"RA_OF_ASC_NODE":315.0753,"ARG_OF_PERICENTER":65.7809,"MEAN_ANOMALY":297.7272,"EPHEMERIS_TYPE":0,"CLASSIFICATION_TYPE":"U","NORAD_CAT_ID":34472,"ELEMENT_SET_NO":999,"REV_AT_EPOCH":84918,"BSTAR":0.0015683222,"MEAN_MOTION_DOT":2.021e-5,"MEAN_MOTION_DDOT":0}]
